{
  "type": "FeatureCollection",
  "features": [
    {
      "type": "Feature",
      "properties": {
        "norad_id": 66520,
        "name": "STARLINK-35952",
        "group": "last-30-days",
        "lat": 1.261538074005009,
        "lon": -144.94897969730502,
        "alt_km": 444.03853559286017,
        "timestamp": "2025-12-15T19:00:44.076135+00:00",
        "meta_object_name": "STARLINK-35952",
        "meta_object_id": "2025-265E",
        "meta_epoch": "2025-12-14T20:00:06.000192",
        "meta_mean_motion": 15.40709393,
        "meta_eccentricity": 0.00010518,
        "meta_inclination": 43.0006,
        "meta_ra_of_asc_node": 41.9314,
        "meta_arg_of_pericenter": 290.4563,
        "meta_mean_anomaly": 323.4477,
        "meta_ephemeris_type": 0,
        "meta_classification_type": "U",
        "meta_norad_cat_id": 66520,
        "meta_element_set_no": 999,
        "meta_rev_at_epoch": 533,
        "meta_bstar": -0.00029260669,
        "meta_mean_motion_dot": -0.0001251,
        "meta_mean_motion_ddot": 0,
        "tle_line1": "1 66520U 25265E   25348.83340278 -.00012510  00000+0 -29261-3 0  9999",
        "tle_line2": "2 66520  43.0006  41.9314 0001051 290.4563 323.4477 15.40709393  5334"
      },
      "geometry": {
        "type": "Point",
        "coordinates": [
          -144.94897969730502,
          1.261538074005009
        ]
      }
    },
    {
      "type": "Feature",
      "properties": {
        "norad_id": 66521,
        "name": "STARLINK-35915",
        "group": "last-30-days",
        "lat": -40.819845867763256,
        "lon": -31.83484965150661,
        "alt_km": 415.7795612482314,
        "timestamp": "2025-12-15T19:00:44.076147+00:00",
        "meta_object_name": "STARLINK-35915",
        "meta_object_id": "2025-265F",
        "meta_epoch": "2025-12-14T04:40:58.207296",
        "meta_mean_motion": 15.50527356,
        "meta_eccentricity": 0.0002411,
        "meta_inclination": 42.9978,
        "meta_ra_of_asc_node": 45.4873,
        "meta_arg_of_pericenter": 258.1159,
        "meta_mean_anomaly": 101.9431,
        "meta_ephemeris_type": 0,
        "meta_classification_type": "U",
        "meta_norad_cat_id": 66521,
        "meta_element_set_no": 999,
        "meta_rev_at_epoch": 398,
        "meta_bstar": 0.0021069432,
        "meta_mean_motion_dot": 0.0012503,
        "meta_mean_motion_ddot": 0,
        "tle_line1": "1 66521U 25265F   25348.19511814  .00125030  00000+0  21069-2 0  9992",
        "tle_line2": "2 66521  42.9978  45.4873 0002411 258.1159 101.9431 15.50527356  3989"
      },
      "geometry": {
        "type": "Point",
        "coordinates": [
          -31.83484965150661,
          -40.819845867763256
        ]
      }
    },
    {
      "type": "Feature",
      "properties": {
        "norad_id": 66522,
        "name": "STARLINK-35946",
        "group": "last-30-days",
        "lat": -40.29339060348662,
        "lon": -29.34025366976507,
        "alt_km": 415.5199854716939,
        "timestamp": "2025-12-15T19:00:44.076157+00:00",
        "meta_object_name": "STARLINK-35946",
        "meta_object_id": "2025-265G",
        "meta_epoch": "2025-12-14T10:51:29.196000",
        "meta_mean_motion": 15.50626153,
        "meta_eccentricity": 0.00028211,
        "meta_inclination": 43.0027,
        "meta_ra_of_asc_node": 43.9758,
        "meta_arg_of_pericenter": 281.3094,
        "meta_mean_anomaly": 78.7449,
        "meta_ephemeris_type": 0,
        "meta_classification_type": "U",
        "meta_norad_cat_id": 66522,
        "meta_element_set_no": 999,
        "meta_rev_at_epoch": 402,
        "meta_bstar": 0.0016089794,
        "meta_mean_motion_dot": 0.00095374,
        "meta_mean_motion_ddot": 0,
        "tle_line1": "1 66522U 25265G   25348.45242125  .00095374  00000+0  16090-2 0  9993",
        "tle_line2": "2 66522  43.0027  43.9758 0002821 281.3094  78.7449 15.50626153  4024"
      },
      "geometry": {
        "type": "Point",
        "coordinates": [
          -29.34025366976507,
          -40.29339060348662
        ]
      }
    },
    {
      "type": "Feature",
      "properties": {
        "norad_id": 66523,
        "name": "STARLINK-35969",
        "group": "last-30-days",
        "lat": -39.73449785250405,
        "lon": -27.000560855878227,
        "alt_km": 415.50775120600065,
        "timestamp": "2025-12-15T19:00:44.076167+00:00",
        "meta_object_name": "STARLINK-35969",
        "meta_object_id": "2025-265H",
        "meta_epoch": "2025-12-14T10:50:59.850240",
        "meta_mean_motion": 15.50627883,
        "meta_eccentricity": 0.0002989,
        "meta_inclination": 42.9993,
        "meta_ra_of_asc_node": 43.9738,
        "meta_arg_of_pericenter": 300.971,
        "meta_mean_anomaly": 59.0856,
        "meta_ephemeris_type": 0,
        "meta_classification_type": "U",
        "meta_norad_cat_id": 66523,
        "meta_element_set_no": 999,
        "meta_rev_at_epoch": 402,
        "meta_bstar": 0.0015629331,
        "meta_mean_motion_dot": 0.0009261,
        "meta_mean_motion_ddot": 0,
        "tle_line1": "1 66523U 25265H   25348.45208160  .00092610  00000+0  15629-2 0  9992",
        "tle_line2": "2 66523  42.9993  43.9738 0002989 300.9710  59.0856 15.50627883  4026"
      },
      "geometry": {
        "type": "Point",
        "coordinates": [
          -27.000560855878227,
          -39.73449785250405
        ]
      }
    },
    {
      "type": "Feature",
      "properties": {
        "norad_id": 66524,
        "name": "STARLINK-35687",
        "group": "last-30-days",
        "lat": 17.877665254878643,
        "lon": -163.7866915815977,
        "alt_km": 441.90825613886136,
        "timestamp": "2025-12-15T19:00:44.076177+00:00",
        "meta_object_name": "STARLINK-35687",
        "meta_object_id": "2025-265J",
        "meta_epoch": "2025-12-14T20:00:06.000192",
        "meta_mean_motion": 15.40705545,
        "meta_eccentricity": 0.00015885,
        "meta_inclination": 43.0008,
        "meta_ra_of_asc_node": 41.9909,
        "meta_arg_of_pericenter": 271.734,
        "meta_mean_anomaly": 317.2967,
        "meta_ephemeris_type": 0,
        "meta_classification_type": "U",
        "meta_norad_cat_id": 66524,
        "meta_element_set_no": 999,
        "meta_rev_at_epoch": 533,
        "meta_bstar": -0.00035899158,
        "meta_mean_motion_dot": -0.00015272,
        "meta_mean_motion_ddot": 0,
        "tle_line1": "1 66524U 25265J   25348.83340278 -.00015272  00000+0 -35899-3 0  9995",
        "tle_line2": "2 66524  43.0008  41.9909 0001588 271.7340 317.2967 15.40705545  5330"
      },
      "geometry": {
        "type": "Point",
        "coordinates": [
          -163.7866915815977,
          17.877665254878643
        ]
      }
    },
    {
      "type": "Feature",
      "properties": {
        "norad_id": 66525,
        "name": "STARLINK-35975",
        "group": "last-30-days",
        "lat": -15.46187589583936,
        "lon": -126.38811428095656,
        "alt_km": 445.79313740360976,
        "timestamp": "2025-12-15T19:00:44.076187+00:00",
        "meta_object_name": "STARLINK-35975",
        "meta_object_id": "2025-265K",
        "meta_epoch": "2025-12-14T20:00:06.000192",
        "meta_mean_motion": 15.40673521,
        "meta_eccentricity": 0.00013615,
        "meta_inclination": 43.0005,
        "meta_ra_of_asc_node": 41.8706,
        "meta_arg_of_pericenter": 295.7177,
        "meta_mean_anomaly": 343.1423,
        "meta_ephemeris_type": 0,
        "meta_classification_type": "U",
        "meta_norad_cat_id": 66525,
        "meta_element_set_no": 999,
        "meta_rev_at_epoch": 533,
        "meta_bstar": 5.1828877e-05,
        "meta_mean_motion_dot": 1.86e-05,
        "meta_mean_motion_ddot": 0,
        "tle_line1": "1 66525U 25265K   25348.83340278  .00001860  00000+0  51829-4 0  9994",
        "tle_line2": "2 66525  43.0005  41.8706 0001361 295.7177 343.1423 15.40673521  5338"
      },
      "geometry": {
        "type": "Point",
        "coordinates": [
          -126.38811428095656,
          -15.46187589583936
        ]
      }
    },
    {
      "type": "Feature",
      "properties": {
        "norad_id": 66526,
        "name": "STARLINK-35932",
        "group": "last-30-days",
        "lat": -37.62302508958133,
        "lon": -19.687031248593605,
        "alt_km": 416.24558937009624,
        "timestamp": "2025-12-15T19:00:44.076202+00:00",
        "meta_object_name": "STARLINK-35932",
        "meta_object_id": "2025-265L",
        "meta_epoch": "2025-12-14T10:49:31.784448",
        "meta_mean_motion": 15.50621032,
        "meta_eccentricity": 0.00017397,
        "meta_inclination": 43.0001,
        "meta_ra_of_asc_node": 43.9653,
        "meta_arg_of_pericenter": 227.2965,
        "meta_mean_anomaly": 132.7749,
        "meta_ephemeris_type": 0,
        "meta_classification_type": "U",
        "meta_norad_cat_id": 66526,
        "meta_element_set_no": 999,
        "meta_rev_at_epoch": 402,
        "meta_bstar": 0.0026007534,
        "meta_mean_motion_dot": 0.00155535,
        "meta_mean_motion_ddot": 0,
        "tle_line1": "1 66526U 25265L   25348.45106232  .00155535  00000+0  26008-2 0  9991",
        "tle_line2": "2 66526  43.0001  43.9653 0001739 227.2965 132.7749 15.50621032  4022"
      },
      "geometry": {
        "type": "Point",
        "coordinates": [
          -19.687031248593605,
          -37.62302508958133
        ]
      }
    }
  ]
}